[{"OBJECT_NAME":"ION SCV-008","OBJECT_ID":"2023-001AU","EPOCH":"2026-03-09T19:46:58.662912","MEAN_MOTION":15.2722664,"ECCENTRICITY":0.00151921,"INCLINATION":97.5676,"RA_OF_ASC_NODE":163.606,"ARG_OF_PERICENTER":8.542,"MEAN_ANOMALY":351.6074,"EPHEMERIS_TYPE":0,"CLASSIFICATION_TYPE":"U","NORAD_CAT_ID":55051,"ELEMENT_SET_NO":999,"REV_AT_EPOCH":17616,"BSTAR":0.00031422806,"MEAN_MOTION_DOT":8.336e-5,"MEAN_MOTION_DDOT":0},{"OBJECT_NAME":"STARLINK-30925","OBJECT_ID":"2023-180E","EPOCH":"2026-03-08T09:03:26.187552","MEAN_MOTION":15.27588974,"ECCENTRICITY":0.00013472,"INCLINATION":43.0035,"RA_OF_ASC_NODE":60.1034,"ARG_OF_PERICENTER":257.0086,"MEAN_ANOMALY":103.0615,"EPHEMERIS_TYPE":0,"CLASSIFICATION_TYPE":"U","NORAD_CAT_ID":58406,"ELEMENT_SET_NO":999,"REV_AT_EPOCH":12730,"BSTAR":8.5748329e-5,"MEAN_MOTION_DOT":2.099e-5,"MEAN_MOTION_DDOT":0}]
